id,country,region,state,short_state,postcode,suburb,cost_per_palet,cost_per_1_1000,cost_per_2_1000,cost_per_1_1500,cost_per_1_2000,note,lat,lon
82a364ad-5b08-4a05-badf-c75c6c2a7409,Australia,AUS-Canberra,Australian Capital T,ACT,2601,Canberra,,243.5,300.32,300.32,300.32,,-35.2809368,149.1300092
3b5bcd5e-9a29-4f17-a736-70c40d870197,Australia,AUS-Canberra,Australian Capital T,ACT,2614,Cook,,243.5,300.32,300.32,300.32,,-35.259722,149.063889
5d9f8e21-2c8d-4f00-a73a-a6c4cc5a7c3e,Australia,AUS-Canberra,Australian Capital T,ACT,2600,Curtin,,243.5,300.32,300.32,300.32,,-35.325,149.077778
87d0c42b-feca-432f-9a7a-d023c63ca9b5,Australia,AUS-Canberra,Australian Capital T,ACT,2618,Hall,,243.5,300.32,300.32,300.32,,-35.1679431,149.0616656
03ace99c-6823-41a0-8601-64e575c6c2ba,Australia,AUS-Canberra,Australian Capital T,ACT,2902,Kambah,,243.5,300.32,300.32,300.32,,-35.383968,149.0640013
1b7aaea6-d487-4b2f-8312-8450b5525914,Australia,AUS-Canberra,Australian Capital T,ACT,2603,Manuka,,243.5,300.32,300.32,300.32,,-35.3182622,149.1330477
e91c8e72-8483-4f46-8e39-b8f17ed9963d,Australia,AUS-Canberra,Australian Capital T,ACT,2911,Mitchell,,243.5,300.32,300.32,300.32,,-35.215278,149.140833
fdfddcd2-1705-443a-b618-c7101f0b21d9,Australia,AUS-Canberra,Australian Capital T,ACT,2582,Murrumbateman,,284.09,340.9,340.9,340.9,,-34.9729427,149.0228616
a6251baa-9f39-4196-a331-005adf5abe43,Australia,AUS-Canberra,Australian Capital T,ACT,2606,Phillip,,243.5,300.32,300.32,300.32,,-35.349444,149.090278
a0ec798a-1e1e-46d2-bece-5f11a958996d,Australia,AUS-Canberra,Australian Capital T,ACT,2609,Pialligo,,243.5,300.32,300.32,300.32,,-35.306389,149.18
9aa5717c-32d4-4c5f-8d19-4406bf98fc34,Australia,AUS-Canberra,Australian Capital T,ACT,2618,via Hall,,243.5,300.32,300.32,300.32,,-35.1679431,149.0616656
0fff5020-1539-4500-8278-3f77f55cb3a1,Australia,AUS-Canberra,Australian Capital T,ACT,2611,Weston,,243.5,300.32,300.32,300.32,,-35.338,149.059
a6a790cb-5918-4065-bbcc-177ab88c1a20,Australia,AUS Northern Rivers,New South Wales,NSW,2444,Port Macquarie,,267.48,324.68,324.68,324.68,,-31.433333,152.9
bafac1ee-792e-45b9-8174-f3c5e0db3e9c,Australia,AUS-ACT,New South Wales,NSW,2577,Sutton Forest,,227.27,284.09,284.09,284.09,,-34.5667,150.3167
fddf2f48-9432-4b27-96e0-6716cf33568f,Australia,AUS-ACT,New South Wales,NSW,2539,Ulladulla,,267.48,324.68,324.68,324.68,,-35.3572426,150.4613249
da8569ac-b26b-4524-9fbb-bc1d3d8ac0f6,Australia,AUS-Blue Mountains,New South Wales,NSW,2155,Beaumont Hills,,124.42,196.97,161.84,188.31,,-33.7,150.941
4ae381f9-c101-4856-bf3f-8c3876fffb4d,Australia,AUS-Blue Mountains,New South Wales,NSW,2774,Blaxland,,284.09,340.9,340.9,340.9,,-33.75,150.616667
a23b606b-626c-4ea1-bea5-ead771ca4586,Australia,AUS-Blue Mountains,New South Wales,NSW,2783,Lawson,,219.16,259.75,259.75,259.75,,-33.7256417,150.4370338
e95e56e2-7005-4332-a1f0-932cd57a4341,Australia,AUS-Blue Mountains,New South Wales,NSW,2568,Menangle,,219.16,259.75,259.75,259.75,,-34.1380681,150.7098171
0601edb4-68d1-4ef0-90ad-2d56b9b44f3d,Australia,AUS-Canberra,New South Wales,NSW,2622,Braidwood,,300.32,357.14,357.14,357.14,,-35.4348268,149.8028582
68603d22-b68b-434b-bd52-eae04b4495aa,Australia,AUS-Canberra,New South Wales,NSW,2621,Bungendore,,284.09,340.9,340.9,340.9,,-35.25,149.45
9feaf4b6-e03e-4e2e-86ef-c7120b6df3ef,Australia,AUS-Canberra,New South Wales,NSW,2581,Collector,,284.09,340.9,340.9,340.9,,-34.9187202,149.4282002
1e41fa55-9c0b-4907-8810-838416bd7485,Australia,AUS-Canberra,New South Wales,NSW,2620,Gundaroo,,243.5,300.32,300.32,300.32,,-35.0291599,149.2664419
efc57eeb-fc70-4419-be52-9b6d1f09504f,Australia,AUS-Canberra,New South Wales,NSW,2795,Newbridge,,284.09,340.9,340.9,340.9,,-33.5900586,149.3807296
8571715b-4529-43f6-97f4-d11bf1c3825e,Australia,AUS-Canberra,New South Wales,NSW,2582,Yass,,284.09,340.9,340.9,340.9,,-34.8261106,148.9143182
7fe813d2-506f-467b-a236-6c6d371324df,Australia,AUS-Central Coast,New South Wales,NSW,2446,Wauchope,,284.09,340.9,340.9,340.9,,-31.4721352,152.7325131
975e81dd-4f36-474f-bd0a-49516c1a9352,Australia,AUS-Central Highland,New South Wales,NSW,2576,Bowral,,227.27,284.09,284.09,284.09,,-34.479167,150.418056
da17d7b2-a909-45bd-b9e6-aa0f73506e9b,Australia,AUS-Central Highland,New South Wales,NSW,2575,Mittagong,,227.27,284.09,284.09,284.09,,-34.45,150.45
776fc07f-b442-4461-a911-548d5f85132c,Australia,AUS-Central Highland,New South Wales,NSW,2795,Mt Panorama,,243.5,300.32,300.32,300.32,,-33.4394959,149.5578859
e245349e-e082-4095-aceb-7bea7f388c69,Australia,AUS-Central Highland,New South Wales,NSW,2795,Rockley Mount,,284.09,340.9,340.9,340.9,,-33.5452692,149.5519949
e172588c-ad32-4598-9b6e-e0b4232802e6,Australia,AUS-Central Ranges,New South Wales,NSW,2800,Borenore,,284.09,340.9,340.9,340.9,,-33.25,148.966667
00734fab-3b9d-4666-bce0-b0efb9c2f3c5,Australia,AUS-Central Ranges,New South Wales,NSW,2864,Cudal,,300.32,357.14,357.14,357.14,,-33.2879191,148.7395094
9ea2ddbd-ec47-45a8-b92d-89a0c4cebb8a,Australia,AUS-Central Ranges,New South Wales,NSW,2820,Dripstone,,284.09,340.9,340.9,340.9,,-32.6413566,149.0030475
b2263821-3009-4ece-b76f-02fb41b2bf48,Australia,AUS-Central Ranges,New South Wales,NSW,2042,Enmore,,124.42,196.97,161.84,188.31,,-33.90067,151.16768
0c01f1b6-02de-46ce-b044-e3094e00b136,Australia,AUS-Central Ranges,New South Wales,NSW,2871,Forbes,,300.32,357.14,357.14,357.14,,-33.379879,148.0066888
b9f80eb7-7214-4e9a-99d3-44d62bc651a0,Australia,AUS-Central Ranges,New South Wales,NSW,2722,Gundagai,,300.32,357.14,357.14,357.14,,-35.0566492,148.102061
aacd6282-c6f0-48a9-a3f0-d9671f703491,Australia,AUS-Central Ranges,New South Wales,NSW,2795,Kelso,,243.5,300.32,300.32,300.32,,-33.418889,149.605833
2682d285-6285-49e0-970b-b0946c5def9b,Australia,AUS-Central Ranges,New South Wales,NSW,2866,Molong,,284.09,340.9,340.9,340.9,,-33.0910485,148.8568255
3707ec9a-850c-4204-b819-4e39325084a7,Australia,AUS-Central Ranges,New South Wales,NSW,2850,Mudgee,,284.09,340.9,340.9,340.9,,-32.6144566,149.5733291
6cdb20d3-0161-435c-9c68-5aba4ff93cb4,Australia,AUS-Central Ranges,New South Wales,NSW,2800,"Nashdale, Orange",,243.5,300.32,300.32,300.32,,-33.3004961,149.0066322
4c9fa0f4-227b-48a5-9c09-f107d2290ce0,Australia,AUS-Central Ranges,New South Wales,NSW,2820,Neurea,,284.09,340.9,340.9,340.9,,-32.6784272,148.9442196
c9bb7f37-54b4-4b9b-ba6e-b812ddd10832,Australia,AUS-Central Ranges,New South Wales,NSW,2800,Orange,,243.5,300.32,300.32,279.56,,-33.283333,149.1
be5e3519-8999-43ba-b647-793ea66fbf75,Australia,AUS-Cowra,New South Wales,NSW,2804,Canowindra,,324.68,381.5,355.12,355.12,,-33.566667,148.666667
6d683ba5-80dc-49ae-8072-3045044d3819,Australia,AUS-Cowra,New South Wales,NSW,2128,Silverwater,,124.42,196.97,161.84,188.31,,-33.8343506,151.0442244
31bbd1c1-ef5a-42c4-a09a-b506acff431a,Australia,AUS-Hilltops,New South Wales,NSW,2594,Young,,300.32,357.14,357.14,357.14,,-34.3,148.3
040b94b4-b276-46c0-8946-4c11223aff1e,Australia,AUS-Hunter,New South Wales,NSW,2328,Baerami,,300.32,357.14,357.14,357.14,,-32.3837116,150.4995591
2b3c5cb1-ad50-484e-8c43-ea816834cf1a,Australia,AUS-Hunter,New South Wales,NSW,2535,Berry,,227.27,284.09,284.09,284.09,,-34.775278,150.693889
119e0320-c812-4c0f-afd6-0f164872a06e,Australia,AUS-Hunter,New South Wales,NSW,2335,Branxton,,243.5,300.32,300.32,300.32,,-32.65,151.35
5bd0b273-f8a4-4fa0-acd2-aea2ef1a000a,Australia,AUS-Hunter,New South Wales,NSW,2330,Broke,,267.48,324.68,324.68,324.68,,-32.7443485,151.0895496
dec47ece-41f4-4e93-8980-b4205d48d7eb,Australia,AUS-Hunter,New South Wales,NSW,2325,Cessnock,,227.27,284.09,284.09,284.09,,-32.8345098,151.3624266
c70d1446-bb72-4752-8b61-8238c98793eb,Australia,AUS-Hunter,New South Wales,NSW,2238,Denman,,267.48,324.68,324.68,324.68,,-32.383333,150.683333
bfadfc29-ca40-498c-ba2e-1bafabf54357,Australia,AUS-Hunter,New South Wales,NSW,2830,Dubbo,,284.09,340.9,340.9,340.9,,-32.2315018,148.6329645
3c25493c-a49e-4aa0-8477-6b4bb2ea56ad,Australia,AUS-Hunter,New South Wales,NSW,2311,East Gresford,,267.48,302.22,302.22,302.22,,-32.4373849,151.5576217
ae733e83-7268-47c4-ab37-7c0fdbb6ce2b,Australia,AUS-Hunter,New South Wales,NSW,2086,Frenchs Forest,,124.42,196.97,161.84,188.31,,-33.7473073,151.2248157
ba47f9f6-19bb-4e40-b01d-c941fc8eb76f,Australia,AUS-Hunter,New South Wales,NSW,2334,Greta,,243.5,300.32,300.32,300.32,,-32.6875639,151.38519
ba7295da-68a3-44bf-9f6f-4181adc2182c,Australia,AUS-Hunter,New South Wales,NSW,2077,Hornsby,,124.42,196.97,161.84,188.31,,-33.7046328,151.0987055
c5b3590f-0974-48c8-a5f0-b5266356bd89,Australia,AUS-Hunter,New South Wales,NSW,2310,Hunter Region MC,,,,,,,-32.1932173,151.700565
a013515e-aac5-4e6c-8b78-65658910c343,Australia,AUS-Hunter,New South Wales,NSW,2327,Kurri Kurri,,227.27,284.09,284.09,284.09,,-32.816667,151.483333
57eac2e4-99a8-40e7-9cea-39913bcbdc06,Australia,AUS-Hunter,New South Wales,NSW,2321,Lockinvar,,219.16,259.75,259.75,259.75,,-32.7,151.45
0e108e5e-f828-4957-ad3e-bbd76b76e880,Australia,AUS-Hunter,New South Wales,NSW,2320,Lovedale,,227.27,284.09,284.09,284.09,,-32.7646282,151.3618529
90680c51-8779-457f-ab32-e295941c81e1,Australia,AUS-Hunter,New South Wales,NSW,2330,Milbrodale,,267.48,324.68,324.68,324.68,,-32.6937112,150.9983817
c9272ab2-6ea9-486d-bac6-cbc4818a63d8,Australia,AUS-Hunter,New South Wales,NSW,2325,Mount View,,227.27,284.09,284.09,284.09,,-32.85,151.283333
fa25c768-380b-4863-8b18-55dfe8a8cba8,Australia,AUS-Hunter,New South Wales,NSW,2333,Muswellbrook,,243.5,279.56,279.56,279.56,,-32.2848467,150.9049638
b9f62462-3d6a-491d-92ab-c8eab69f5f9e,Australia,AUS-Hunter,New South Wales,NSW,2325,Nulkaba,,227.27,284.09,284.09,284.09,,-32.801667,151.363611
77d1f20b-bdcb-43ab-a831-c12144cc2c62,Australia,AUS-Hunter,New South Wales,NSW,2130,Pokolbin,,227.27,284.09,284.09,284.09,,-32.798333,151.284444
1dfe988f-8b4d-42c2-8b7e-da92b9f0e63e,Australia,AUS-Hunter,New South Wales,NSW,2320,Rothbury,,243.5,279.56,279.56,279.56,,-32.75,151.333333
2c7f2031-1903-46a8-a30d-4a1a1517aaeb,Australia,AUS-Hunter,New South Wales,NSW,2012,Strawberry Hills,,124.42,196.97,161.84,188.31,,-33.8882671,151.2078465
fa0f949e-72ba-4b79-bfd5-2764cffb1695,Australia,AUS-Hunter,New South Wales,NSW,2820,Stuart Town,,392.89,445.78,445.78,445.78,,-32.7992223,149.0675878
cf1d5f72-a23a-47ae-9076-311a12174f3f,Australia,AUS-Hunter,New South Wales,NSW,2001,Sydney,,124.42,196.97,161.84,184.82,,-33.8688197,151.2092955
4d9cb863-7e39-4ac2-9cbb-8685e5c3a8de,Australia,AUS-Hunter,New South Wales,NSW,2322,Thornton,,227.27,284.09,284.09,284.09,,-32.783333,151.641667
d06ab992-21fe-4b08-beb6-647d14a93f22,Australia,AUS-Hunter,New South Wales,NSW,2580,Towrang,,243.5,279.56,279.56,279.56,,-34.6872847,149.8594
c1ac459b-bf65-4677-96d3-ef1dbc85935d,Australia,AUS-Hunter,New South Wales,NSW,2325,West Cessnock,,227.27,284.09,284.09,284.09,,-32.8383676,151.3454774
1b33f4fd-327f-462e-9768-e1ddfafaae67,Australia,AUS-Hunter,New South Wales,NSW,2293,Wickham,,219.16,259.75,259.75,259.75,,-32.924,151.76
9884137f-7dd9-4b85-bc8a-7382c2b937ee,Australia,AUS-McLaren Vale,New South Wales,NSW,2731,Moama,,100.44,100.44,100.44,100.44,,-36.1074189,144.7554298
60e45d1f-0af8-45db-91bf-dfbe2380c9b2,Australia,AUS-Mudgee,New South Wales,NSW,2843,Coolah,,422.08,478.9,478.9,478.9,,-31.7845656,149.7487272
7ae55be8-a512-432f-8158-2957a0bcbfcd,Australia,AUS-New England,New South Wales,NSW,2454,Bellingen,,284.09,340.9,340.9,340.9,,-30.4522423,152.8979566
560e4c76-304f-4cf5-992c-cb226a2e8d9c,Australia,AUS-New England,New South Wales,NSW,2355,Bendemeer,,324.68,355.12,355.12,355.12,,-30.8697795,151.1512433
f090cddc-261e-4f01-8675-0d6c0603ae94,Australia,AUS-New England,New South Wales,NSW,2354,Kentucky,,324.68,355.12,355.12,355.12,,-30.7580196,151.4515731
17d50b10-55c0-4a8c-959b-4ef82c1a2d97,Australia,AUS-New England,New South Wales,NSW,2400,Moree,,324.68,355.12,355.12,355.12,,-29.465833,149.833889
591367cc-db05-4fd8-b2c6-c75dd279b626,Australia,AUS-Nth East,New South Wales,NSW,2640,Albury,,132.68,132.68,132.68,132.68,,-36.0737293,146.9135418
980d3102-646e-4353-8270-7dbfc8785a64,Australia,AUS-Nth East,New South Wales,NSW,2646,Corowa,,132.68,132.68,132.68,132.68,,-35.983333,146.383333
8bd4b331-b2a4-4180-b980-f14f6b82001a,Australia,AUS-Queensland,New South Wales,NSW,2372,Tenterfield,,324.68,355.12,355.12,355.12,,-29.0575678,152.0189859
e74f2754-ca84-4173-904b-d9bb1f597a4d,Australia,AUS-Riverina,New South Wales,NSW,2680,Bilbul,,172.5,172.5,172.5,172.5,,-34.275,146.15
5300a6d8-4cfd-4543-b0fa-1e7d691129b0,Australia,AUS-Riverina,New South Wales,NSW,2652,Goolgowi,,267.48,324.68,324.68,324.68,,-33.9769925,145.7076296
49275995-a60e-4327-93ea-df6e70abf716,Australia,AUS-Riverina,New South Wales,NSW,2680,Griffith,,172.5,172.5,172.5,172.5,,-34.2800883,146.0455313
a2cdcac6-77e9-4e96-94d9-04ed2ff0ab0b,Australia,AUS-Riverina,New South Wales,NSW,2680,Hanwood,,172.5,172.5,172.5,172.5,,-34.333333,146.033333
e15afc46-c681-4bbb-8999-a1974980af32,Australia,AUS-Riverina,New South Wales,NSW,2705,Leeton,,159,159,159,159,,-34.566667,146.4
e7c65e51-2442-4b23-a664-5d2e4314daf7,Australia,AUS-Riverina,New South Wales,NSW,2680,Tharbogang Griffith,,172.5,172.5,172.5,172.5,,-34.2631073,145.9835473
033ef747-8437-426c-a227-8f613b03b568,Australia,AUS-Riverina,New South Wales,NSW,2650,Wagga Wagga,,159,159,159,159,,-35.1081689,147.3598323
0017290f-b855-426e-9584-4976e49a6143,Australia,AUS-Riverina,New South Wales,NSW,2681,Yenda,,172.5,172.5,172.5,172.5,,-34.2451524,146.2026955
5f9aa8f4-81f4-499b-8837-fed99d444af4,Australia,AUS-Riverina,New South Wales,NSW,2650,"Bomen, Wagga Wagga",,159,159,159,159,,-35.075,147.416667
38010933-5052-4da2-915d-40c4c2de2a8f,Australia,AUS-Shoalhaven Coast,New South Wales,NSW,2443,Dunbogan,,267.48,324.68,324.68,324.68,,-31.6631027,152.8088251
0da2ab4f-f02c-47b1-bb95-9da1b5ef94b8,Australia,AUS-Shoalhaven Coast,New South Wales,NSW,2539,Termeil,,267.48,324.68,324.68,324.68,,-35.4868534,150.3365534
680cf7d6-a1d7-4cdd-acb3-d278c328f08b,Australia,AUS-Southern Highlan,New South Wales,NSW,2578,Bundanoon,,227.27,284.09,284.09,284.09,,-34.6559402,150.2921468
f9191c3a-0b79-4a57-9f38-690ecc459e4e,Australia,AUS-Southern Highlan,New South Wales,NSW,2577,Moss Vale,,227.27,284.09,284.09,284.09,,-34.550571,150.3964283
075befab-7a60-4b99-afdc-2329e0ac3b7d,Australia,AUS-Queensland,Queensland,QLD,4066,Auchenflower,,209.28,364.64,261.07,320.62,,-27.475556,152.991667
964b4b37-cc5b-47ab-a373-2f29f1b29ad2,Australia,AUS-Queensland,Queensland,QLD,4382,Ballandean,,593.61,870.25,704.11,869.37,,-28.801,151.843
d6444715-b014-4d77-8975-062b537e395e,Australia,AUS-Queensland,Queensland,QLD,4310,Boonah,,355.32,580.12,580.12,580.12,,-27.9926605,152.6905879
be967b48-1d35-4882-b994-aa12abae736c,Australia,AUS-Queensland,Queensland,QLD,4510,Caboolture,,275.24,394.36,394.36,394.36,,-27.066667,152.966667
0aab761a-a40c-4fa2-807a-60ea9847326f,Australia,AUS-Queensland,Queensland,QLD,4381,Glen Aplin,,593.61,870.25,704.11,869.37,,-28.7342933,151.8760283
431ee889-fb93-44a8-a592-a150f6571dbb,Australia,AUS-Queensland,Queensland,QLD,4655,Hervey Bay,,482.61,692.51,517.05,635.54,,-25.2881539,152.7676633
50581c65-55bc-4790-97c6-8ea5f769b3bd,Australia,AUS-Queensland,Queensland,QLD,4387,Inglewood,,593.61,870.25,704.11,869.37,,-28.4152771,151.0667869
c3ecb742-c09b-4d39-9f8b-fd010a5a4109,Australia,AUS-Queensland,Queensland,QLD,4069,Kenmore,,209.28,364.64,261.07,320.62,,-27.519,152.9375
5879c23e-34fc-49fb-af00-73b95ed1969b,Australia,AUS-Queensland,Queensland,QLD,4069,Kenmore Hills,,209.28,364.64,261.07,320.62,,-27.5,152.933333
09d7fa31-efbe-429b-9ad7-8d5ff620ea87,Australia,AUS-Queensland,Queensland,QLD,4515,Kilcoy,,375.64,628.51,460.7,565.11,,-26.9422979,152.5620065
24f32db8-9c28-4fde-b508-069157689b8c,Australia,AUS-Queensland,Queensland,QLD,4610,Kingaroy,,390.26,509.38,509.38,509.38,,-26.5309478,151.8399968
161b3e18-d36b-484b-8758-2021d3c0f352,Australia,AUS-Queensland,Queensland,QLD,4172,Manly,,209.28,364.64,261.07,320.62,,-27.45,153.183333
fde39a3d-4b5c-46a8-8625-da8cb907cadc,Australia,AUS-Queensland,Queensland,QLD,4306,Marburg,,355.32,580.12,580.12,580.12,,-27.566667,152.583333
5408bec1-6663-4614-a578-1bb02d8cba0b,Australia,AUS-Queensland,Queensland,QLD,4352,McClagan,,375.64,628.51,460.7,565.11,,-27.0652563,151.6600147
f27d9ebc-4134-458f-8655-b6691013da78,Australia,AUS-Queensland,Queensland,QLD,4615,Nanango,,355.32,580.12,580.12,580.12,,-26.6776479,151.9858696
611a6ab6-84da-45b8-8b39-aec9658171f6,Australia,AUS-Queensland,Queensland,QLD,4272,North Tamborine,,355.32,580.12,580.12,580.12,,-27.9249062,153.1853684
0fab5809-ef98-41e1-92bf-2a81d082601e,Australia,AUS-Queensland,Queensland,QLD,4521,Ocean View,,482.61,707.21,517.05,635.54,,-27.126881,152.814706
1e24759d-1b58-45f7-82bd-53e908c08df1,Australia,AUS-Queensland,Queensland,QLD,4287,Rathdowney,,593.61,870.25,704.11,869.37,,-28.2109509,152.8566126
b10f6edb-22b9-41f0-a251-d4a2c96bf40c,Australia,AUS-Queensland,Queensland,QLD,4655,River Heads,,482.61,692.51,517.05,635.54,,-25.4033258,152.9073457
42fe8869-b49d-4e30-a7ae-bc1633d96aa7,Australia,AUS-Queensland,Queensland,QLD,4380,Stanthorpe,,324.53,443.66,443.66,443.66,,-28.6599726,151.9375602
d76fcfad-e705-4414-bad3-7758d16e016e,Australia,AUS-Queensland,Queensland,QLD,4101,West End,,209.28,320.62,209.28,261.07,,-27.4802,153.0122
b27b15ca-7fe9-450f-8130-62d91c585625,Australia,AUS-Queensland,Queensland,QLD,4030,Wooloowin,,209.28,364.64,261.07,320.62,,-27.4223358,153.0410636
670c4554-8245-400f-a0b3-df0b811fe63a,Australia,AUS-Queensland,Queensland,QLD,4305,Wulkuraka,,209.28,364.64,261.07,320.62,,-27.6102239,152.7294491
7b3fba48-beb9-44b0-a149-00f84ce33dd6,Australia,AUS-Barossa,South Australia,SA,5351,Lyndoch,,210.24,252.76,210.12,236.18,,-34.6037834,138.8863377
7fcd6e52-6456-4c9f-9761-bf0d7d0a4d17,Australia,AUS-Clare,South Australia,SA,5453,Clare,,188.61,231.13,188.49,214.55,,-33.8397986,138.6127513
a3948a3d-cb45-48e6-9ec6-dcdb9b6bd976,Australia,AUS-Coonawarra,South Australia,SA,5271,Naracoorte,,246.29,288.81,246.17,272.23,,-36.9602102,140.7413243
61c8b3b3-f6d0-4d46-b46a-489e2d16d0a9,Australia,AUS-McLaren Vale,South Australia,SA,5171,McLaren Flat,,174.19,216.71,174.07,200.13,,-35.2053048,138.5891838
65932300-d294-4f48-bdc2-a980f67ecc94,Australia,AUS-Adelaide,South Australia,SA,5001,Adelaide,,109.3,151.82,109.18,135.24,,-34.9219463,138.5955172
88a27747-5691-418e-afe7-4b3562e86fdc,Australia,AUS-Adelaide,South Australia,SA,5064,Glen Osmond,,109.3,151.82,109.18,135.24,,-34.9600124,138.6501667
70c28beb-966f-4658-8f71-052f4a651fe3,Australia,AUS-Adelaide Hills,South Australia,SA,5137,Ashton,,181.4,223.92,181.28,207.34,,-34.939722,138.737222
c1855d80-bd93-4afc-b208-992a62c40583,Australia,AUS-Adelaide Hills,South Australia,SA,5138,Basket Range,,181.4,223.92,181.28,207.34,,-34.929881,138.7743842
07c730ee-5922-4f39-9f5e-591b55aa82aa,Australia,AUS-Adelaide Hills,South Australia,SA,5244,Charleston,,181.4,223.92,181.28,207.34,,-34.916667,138.9
034174ef-d058-46d2-a852-708f5e827e79,Australia,AUS-Adelaide Hills,South Australia,SA,5152,Crafers,,188.61,231.13,188.49,214.55,,-34.9875645,138.714123
baa10f99-2ba0-4601-a75f-c3cce08d9b3d,Australia,AUS-Adelaide Hills,South Australia,SA,5233,Gumeracha,,181.4,223.92,181.28,207.34,,-34.825556,138.883333
026753a1-aff8-4363-a362-88f5524c3a5c,Australia,AUS-Adelaide Hills,South Australia,SA,5245,Hahndorf,,181.4,223.92,181.28,207.34,,-35.0258566,138.809318
57f29ee1-3ca7-42c0-9a25-2eb63ba7041d,Australia,AUS-Adelaide Hills,South Australia,SA,5068,Kensington Park,,109.3,151.82,109.18,135.24,,-34.9208593,138.6551802
fbe00658-76f3-4208-85d6-5f210697d7a2,Australia,AUS-Adelaide Hills,South Australia,SA,5071,Kent Town,,109.3,151.82,109.18,135.24,,-34.920278,138.619167
101dbb59-ba2b-478b-9b46-e373a37015d6,Australia,AUS-Adelaide Hills,South Australia,SA,5238,Mannum,,217.45,259.97,217.33,243.39,,-34.9130677,139.3052195
8460770a-f4e5-4d90-ad7e-940398dbf045,Australia,AUS-Adelaide Hills,South Australia,SA,5171,McLaren Vale,,174.19,216.71,174.07,200.13,,-35.2210309,138.5461247
c796f333-1226-4dcd-a6fa-53a8cc27c47e,Australia,AUS-Adelaide Hills,South Australia,SA,5153,Mylor,,181.4,223.92,181.28,207.34,,-35.05,138.75
5ae903a9-6f2c-4c51-8b02-e2630fcf92f6,Australia,AUS-Adelaide Hills,South Australia,SA,5252,Nairne,,181.4,223.92,181.28,207.34,,-35.0295589,138.9079187
d0f4a65e-c15a-4934-a9ba-59af24eecf4c,Australia,AUS-Adelaide Hills,South Australia,SA,5136,Norton Summit,,181.4,223.92,181.28,207.34,,-34.9174787,138.7442455
4dd7c926-6273-4b69-881b-e5a9e052a23d,Australia,AUS-Adelaide Hills,South Australia,SA,5243,Oakbank,,181.4,223.92,181.28,207.34,,-34.9746306,138.8498018
3bf6eeea-12f9-4036-8dd3-f5b28add55fe,Australia,AUS-Adelaide Hills,South Australia,SA,5152,Stirling,,181.4,223.92,181.28,207.34,,-35.0058863,138.714123
bcc77901-b236-425b-9e7f-be708685ed91,Australia,AUS-Adelaide Hills,South Australia,SA,5141,Summertown,,181.4,223.92,181.28,207.34,,-34.95,138.716667
5d702503-ecfd-4300-bb51-1a225f48be69,Australia,AUS-Adelaide Hills,South Australia,SA,5062,Torrens Park,,109.3,151.82,109.18,135.24,,-34.986,138.616
be7d3cb5-5d9e-49d4-b6de-c55314db45dd,Australia,AUS-Adelaide Hills,South Australia,SA,5351,Williamstown,,195.82,238.34,195.7,221.76,,-34.6707789,138.8882602
f070690b-c62e-46bf-b460-55bb9242dba1,Australia,AUS-Adelaide Hills,South Australia,SA,5172,Willunga,,195.82,238.34,195.7,221.76,,-35.2743124,138.5559895
2798abb7-1626-4d1d-be6e-0a7d3a5c06a4,Australia,AUS-Adelaide Hills,South Australia,SA,5244,Woodside,,181.4,223.92,181.28,207.34,,-34.9502898,138.8759289
4b66adba-194a-4d44-880d-2d56591d0435,Australia,AUS-Barossa,South Australia,SA,5353,Angaston,,210.24,252.76,210.12,236.18,,-34.503519,139.0505472
b6842db9-2d48-4c2d-a182-abc6e668e9fe,Australia,AUS-Barossa,South Australia,SA,5242,Balhannah,,181.4,223.92,181.28,207.34,,-34.9893754,138.827385
38300a19-6e9c-4204-856d-ea5eec4e3feb,Australia,AUS-Barossa,South Australia,SA,5355,Daveyston,,210.24,252.76,210.12,236.18,,-34.4733985,138.8765197
fb992247-b924-44c4-b495-70cccf68cec8,Australia,AUS-Barossa,South Australia,SA,5065,Dulwich,,109.3,151.82,109.18,135.24,,-34.936,138.63
8c94013e-bf2c-42a5-8d5b-8cafdd733c25,Australia,AUS-Barossa,South Australia,SA,5116,Evanston Park,,109.3,151.82,109.18,135.24,,-34.62893,138.74885
e049051b-a8ab-48d0-8e74-37a6303f73be,Australia,AUS-Barossa,South Australia,SA,5360,Greenock,,174.19,216.71,174.07,200.13,,-34.457778,138.9275
3cc53dd5-2f3d-499d-8952-31f40a96f0f9,Australia,AUS-Barossa,South Australia,SA,5022,Henley Beach,,109.3,151.82,109.18,135.24,,-34.92,138.494
b2fa4423-e003-4f6d-aac5-24065dc7912e,Australia,AUS-Barossa,South Australia,SA,5491,Jamestown,,181.4,223.92,181.28,207.34,,-33.205278,138.601944
67a00610-3d8e-4f74-8b01-8facd461fb0b,Australia,AUS-Barossa,South Australia,SA,5355,Light Pass,,210.24,252.76,210.12,236.18,,-34.4711035,139.0261692
3f1bd8dd-4a51-4a4b-adb4-c4cdab0d927b,Australia,AUS-Barossa,South Australia,SA,5121,MacDonald Park,,109.3,151.82,109.18,135.24,,-34.66973,138.64501
73714837-2d55-4bca-83ff-a5c52efd6c8e,Australia,AUS-Barossa,South Australia,SA,5072,Magill,,109.3,151.82,109.18,135.24,,-34.909,138.6758
29fbb6cf-54a1-4f95-bf21-fc15ad953be4,Australia,AUS-Barossa,South Australia,SA,5067,Norwood,,109.3,151.82,109.18,135.24,,-34.923,138.633
0822a8ba-7e55-4b09-b81f-141f19d20199,Australia,AUS-Barossa,South Australia,SA,5355,Nuriootpa,,210.24,252.76,210.12,236.18,,-34.4666111,138.9916574
d40b05b5-59f2-4e34-9a12-dfc355e3b353,Australia,AUS-Barossa,South Australia,SA,5352,Rowland Flat,,210.24,252.76,210.12,236.18,,-34.5731547,138.944233
26a8bfae-af3c-4ed4-afdd-66833c7a4ab9,Australia,AUS-Barossa,South Australia,SA,5355,Seppeltsfield,,253.5,296.02,253.38,279.44,,-34.4974441,138.9101056
0f2495b8-2ad5-4698-b0a2-0e2f9359488e,Australia,AUS-Barossa,South Australia,SA,5235,Springton,,195.82,238.34,195.7,221.76,,-34.708,139.09
ffaf00fc-a044-4199-91d0-e809970a2cc0,Australia,AUS-Barossa,South Australia,SA,5352,Tanunda,,210.24,252.76,210.12,236.18,,-34.5200776,138.9626892
eb3e8334-dbc4-4725-a1c9-7ddd1c7ea38a,Australia,AUS-Barossa,South Australia,SA,5352,Tununda,,210.24,252.76,210.12,236.18,,-34.5200776,138.9626892
ce4900a3-9ace-4f59-90f2-4a233c7aa3fa,Australia,AUS-Barossa,South Australia,SA,5065,Tusmore,,109.3,151.82,109.18,135.24,,-34.9360768,138.6476601
63c15390-bde4-4d3e-8987-8e80dc8c6d84,Australia,AUS-Barossa,South Australia,SA,5120,Virginia,,109.3,151.82,109.18,135.24,,-34.6743048,138.5560901
6408afa1-8b05-4aa2-a170-bb84eb11b9c2,Australia,AUS-Clare,South Australia,SA,5451,Auburn,,188.61,231.13,188.49,214.55,,-34.027222,138.685556
fb8a5283-4f43-4fa6-829c-2a0497946dee,Australia,AUS-Clare,South Australia,SA,5065,Linden Park,,109.3,151.82,109.18,135.24,,-34.947,138.65
25edcc34-26f9-4a32-85d3-183ea05c2cb8,Australia,AUS-Clare,South Australia,SA,5453,Sevenhill via Clare,,188.61,231.13,188.49,214.55,,-33.8904391,138.628953
6132ea9a-8421-443c-ad49-9f7f22521176,Australia,AUS-Clare,South Australia,SA,5453,via Sevenhill,,188.61,231.13,188.49,214.55,,-33.8861271,138.6272981
ceec7459-48b9-48bd-aec8-d7dd843decee,Australia,AUS-Coonawarra,South Australia,SA,5263,Coonawarra,,224.66,267.18,224.54,250.6,,-37.294215,140.8248263
aa4a4d5c-f8d5-48b8-8145-4d547c5c65d8,Australia,AUS-Coonawarra,South Australia,SA,5035,Forestville,,109.3,151.82,109.18,135.24,,-34.951,138.581
e4162585-01b6-4cc0-8658-d65e0eb2cb50,Australia,AUS-Coonawarra,South Australia,SA,5069,Maylands,,109.3,151.82,109.18,135.24,,-34.911,138.637
5792612b-53c5-49d4-9ec4-37979d8e47c1,Australia,AUS-Coonawarra,South Australia,SA,5275,Mt Benson,,277.3,319.82,277.18,303.24,,-37.1346096,139.7974831
7a1883e8-a0a4-4bb8-9a5e-fa5dd90761a7,Australia,AUS-Coonawarra,South Australia,SA,5290,Mt Gambier,,217.45,259.97,217.33,243.39,,-37.8256039,140.7712393
7aa743b0-7699-43d2-a5f8-b580c8032989,Australia,AUS-Coonawarra,South Australia,SA,5277,Penola,,224.66,267.18,224.54,250.6,,-37.3785162,140.8364721
0c6a8ac4-89e5-4d08-9510-eeb77977fed4,Australia,AUS-Coonawarra,South Australia,SA,5276,Robe,,253.5,296.02,253.38,279.44,,-37.1748833,139.8029173
4cb6b87e-822e-4505-bc39-a9b3e7ff0c95,Australia,AUS-Eden Valley,South Australia,SA,5235,Eden Valley,,195.82,238.34,195.7,221.76,,-34.6546423,139.1009757
e14b10db-9cf4-4af8-bec4-7d1d216d81d4,Australia,AUS-Kangaroo Island,South Australia,SA,5223,Kangaroo Island,,325.6,368.12,325.48,351.54,,-35.8495682,137.058302
f4787f0e-5568-4192-8815-9e63ed116293,Australia,AUS-Langhorne Creek,South Australia,SA,5255,Angas Plains,,224.66,267.18,224.54,250.6,,-35.3466735,138.9815531
92ef72d8-cffe-4280-9260-15093e2667dd,Australia,AUS-Langhorne Creek,South Australia,SA,5214,Goolwa,,210.24,252.76,210.12,236.18,,-35.4980286,138.7783094
1fdfc203-5329-42b3-8aac-9bbfece1f443,Australia,AUS-Langhorne Creek,South Australia,SA,5255,Langhorne Creek,,217.45,259.97,217.33,243.39,,-35.2962556,139.038277
8623d0ef-377a-444f-8efd-a60741e04989,Australia,AUS-Langhorne Creek,South Australia,SA,5067,Rose Park,,109.3,151.82,109.18,135.24,,-34.93072,138.62798
3dbe1506-b3c9-4224-ac09-8ed5cf5f0404,Australia,AUS-McLaren Vale,South Australia,SA,5052,Belair,,109.3,151.82,109.18,135.24,,-34.998118,138.62254
cb9b5d83-59cd-4b90-85ae-30e1a398b3cc,Australia,AUS-McLaren Vale,South Australia,SA,5157,Clarendon,,174.19,216.71,174.07,200.13,,-35.1054491,138.6297435
b977d19f-e313-4828-a200-4d9756532ab6,Australia,AUS-McLaren Vale,South Australia,SA,5048,Dover Gardens,,109.3,151.82,109.18,135.24,,-35.025,138.538
dab6ea3a-2806-4b95-b79c-227bc1c5b978,Australia,AUS-McLaren Vale,South Australia,SA,5043,Marion,,109.3,151.82,109.18,135.24,,-35,138.552
0795fde8-9563-4860-be29-bf714980b3d6,Australia,AUS-McLaren Vale,South Australia,SA,5031,Mile End South,,109.3,151.82,109.18,135.24,,-34.938,138.571
267a3e64-cad2-4009-99e1-1a70a317d087,Australia,AUS-McLaren Vale,South Australia,SA,5169,Moana,,152.56,195.08,152.44,178.5,,-35.198,138.473
c3dd54fa-99f3-4850-9bec-1a5678f1620f,Australia,AUS-McLaren Vale,South Australia,SA,5342,Monash,,224.66,267.18,224.54,250.6,,-34.2003327,140.5756887
910ca940-af30-4988-b99e-7ad64a445edc,Australia,AUS-McLaren Vale,South Australia,SA,5174,Sellicks Hill,,174.19,216.71,174.07,200.13,,-35.3500635,138.5015331
1ea3dee6-7fc0-496f-8510-aa5b4b52faf1,Australia,AUS-McLaren Vale,South Australia,SA,5161,Woodcroft,,152.56,195.08,152.44,178.5,,-35.0958327,138.5337293
3e6e0155-0191-426a-a1b3-9f121b1c5d2b,Australia,AUS-McLaren Vale,South Australia,SA,5203,Yankalilla,,217.45,259.97,217.33,243.39,,-35.4598561,138.351117
68462df5-d628-4df9-acb6-fdbcb6ef003d,Australia,AUS-Mt Benson,South Australia,SA,5275,Kingston,,282.34,324.86,282.22,308.28,,-36.8364852,139.8516565
263e5efd-9ecf-44cb-a018-34e34601238a,Australia,AUS-Mt Benson,South Australia,SA,5275,Mount Benson,,277.3,319.82,277.18,303.24,,-37.1346096,139.7974831
401c74d2-0e77-4acb-be1a-5030b9aef4b9,Australia,AUS-Mt Benson,South Australia,SA,5276,via Robe,,253.5,296.02,253.38,279.44,,-37.1748833,139.8029173
3bcbd321-f9fe-42a0-b7f3-491b05307d4d,Australia,AUS-Riverland,South Australia,SA,5333,Loxton,,246.29,288.81,246.17,272.23,,-34.45493,140.5693309
b82f5599-9739-46c8-b477-8add11684507,Australia,AUS-Riverland,South Australia,SA,5341,Renmark,,246.29,288.81,246.17,272.23,,-34.1742746,140.7442855
982fdd5b-eb69-43e2-b9a4-b1bf5dbe6a94,Australia,AUS-Tasmania,Tasmania,TAS,7000,Hobart,,244.22,488.44,325.63,407.03,,-42.8821377,147.3271949
ce04bc85-9be4-44e3-b202-b4e63292b4f0,Australia,AUS-Tasmania,Tasmania,TAS,7215,Bicheno,,375.31,771.95,521.73,646.85,,-41.8522419,148.2596683
07aa4473-9ac4-4046-97b2-c4f9026d46ab,Australia,AUS-Tasmania,Tasmania,TAS,7170,Cambridge,,244.22,488.44,325.63,407.03,,-42.836667,147.4411111
0be5a985-d8e7-4385-ac4c-f383838bacf5,Australia,AUS-Tasmania,Tasmania,TAS,7009,Campania,,329.03,633.3,431.62,512.89,,-42.8418713,147.3008839
8bb6bac3-5cab-4bd2-9cd9-282832ac5fbc,Australia,AUS-Tasmania,Tasmania,TAS,7215,Coles Bay,,375.31,771.95,521.73,646.85,,-42.0811078,148.2331598
2bd61d53-7487-4970-be59-98ed8495f66e,Australia,AUS-Tasmania,Tasmania,TAS,7109,Cradoc,,329.03,633.3,431.62,512.89,,-43.108056,147.033056
4268a056-dc1c-4359-934b-0c9fbb369d1a,Australia,AUS-Tasmania,Tasmania,TAS,7190,Cranbrook,,370.99,720.66,487.54,604.11,,-41.9999051,148.0853589
5776527f-ec12-4347-b811-8b0bd7a84a79,Australia,AUS-Tasmania,Tasmania,TAS,7275,Deviot,,329.03,633.3,431.62,512.89,,-41.2364996,146.9227513
09ee4d53-0399-46d4-884c-94f8a27235d4,Australia,AUS-Tasmania,Tasmania,TAS,7275,Exeter,,329.03,633.3,431.62,512.89,,-41.299722,146.953056
73b26514-6966-4a23-b9f6-3ea219322b84,Australia,AUS-Tasmania,Tasmania,TAS,7030,Granton,,244.22,488.44,325.63,407.03,,-42.751667,147.228056
9d3f326a-5b2a-4a78-a576-038cc8d9bacb,Australia,AUS-Tasmania,Tasmania,TAS,7276,Gravelly Beach,,312.8,604.29,409.96,507.13,,-41.2790163,146.9660668
15ac1738-056c-4820-bb75-ef2158ff24ff,Australia,AUS-Tasmania,Tasmania,TAS,7270,Kayena,,312.8,604.29,409.96,507.13,,-41.1880765,146.8831985
11620783-9898-401c-af0e-1b5557165d60,Australia,AUS-Tasmania,Tasmania,TAS,7304,Kimberley,,354.43,687.57,465.47,576.51,,-41.4,146.493
47caf4ba-aa0c-445f-93f4-452a7786f643,Australia,AUS-Tasmania,Tasmania,TAS,7250,Launceston,,228.1,456.2,304.13,380.17,,-41.4332215,147.1440875
53d57035-71ec-40f0-b0d5-380b9ea598ff,Australia,AUS-Tasmania,Tasmania,TAS,7277,Legana,,228.1,456.2,304.13,380.17,,-41.366667,147.05
ad34dee2-8706-4d9b-bde1-f720e8ac9234,Australia,AUS-Tasmania,Tasmania,TAS,7005,Lower Sandy Bay,,244.22,488.44,325.63,407.03,,-42.901,147.327
dbad2785-70c2-420a-9857-e2158428c388,Australia,AUS-Tasmania,Tasmania,TAS,7109,Petcheys Bay,,329.03,633.3,431.62,512.89,,-43.1895414,147.0225613
db2dfec9-7295-4dfa-af03-5b04ba0b57de,Australia,AUS-Tasmania,Tasmania,TAS,7254,Pipers Brook,,354.43,687.57,465.47,576.51,,-41.0845363,147.1821608
6e6413ad-d311-4d4b-b104-d09ddd1e4158,Australia,AUS-Tasmania,Tasmania,TAS,7304,Red Hills,,354.43,687.57,465.47,576.51,,-41.5289327,146.597516
a5d530ec-6645-47c3-8f42-21bfa33b4e6a,Australia,AUS-Tasmania,Tasmania,TAS,7258,Relbia,,228.1,456.2,304.13,380.17,,-41.5099912,147.2101101
eef96212-ec47-4466-bf9d-c270f3490feb,Australia,AUS-Tasmania,Tasmania,TAS,7025,Richmond,,329.03,633.3,431.62,512.89,,-42.733333,147.433333
1663be2e-c6d4-4eb1-bfc7-49b73604de8c,Australia,AUS-Tasmania,Tasmania,TAS,7018,Rosny Park,,228.1,456.2,304.13,380.17,,-42.866389,147.369167
b0cd3ece-ecf0-4a81-80d1-887c839910ae,Australia,AUS-Tasmania,Tasmania,TAS,7270,"Rowella, West Tamar",,312.8,604.29,409.96,507.13,,-41.1702758,146.8942426
86d2409c-b877-4743-9fb6-f3f242a1b837,Australia,AUS-Tasmania,Tasmania,TAS,7270,Sidmouth,,312.8,604.29,409.96,507.13,,-41.2319313,146.8791785
9a519912-677c-4b85-896f-b033d4ba0295,Australia,AUS-Tasmania,Tasmania,TAS,7216,St Helena,,375.31,771.95,521.73,646.85,,-41.3217945,148.2498127
432f44bc-c36b-497f-932c-114bad6b867b,Australia,AUS-Tasmania,Tasmania,TAS,7303,Westbury,,312.8,604.29,409.96,507.13,,-41.5383733,146.8417788
d8cfb984-5707-4b8a-a381-90fc6bf2e438,Australia,AUS-Alpine Valley,Victoria,VIC,3741,Bright,,132.68,132.68,132.68,132.68,,-36.7321521,146.9836221
2b6e0809-711a-4864-80c1-0a89f20421a8,Australia,AUS-Alpine Valley,Victoria,VIC,3737,Gapstead,,132.68,132.68,132.68,132.68,,-36.5140692,146.6562952
5b6f5783-ecde-482b-a271-b2f915699b98,Australia,AUS-Alpine Valley,Victoria,VIC,3740,Porepunkah,,133.46,133.46,133.46,133.46,,-36.694433,146.9264143
939250ff-7bac-47b0-9506-88914625730d,Australia,AUS-Alpine Valley,Victoria,VIC,3442,Woodend,,121.5,243,121.5,121.5,2000L tanks are local depot collect only,-37.3613204,144.5244238
1b2da388-caa5-427e-baf8-e2826d7bb9b2,Australia,AUS-Alpine Valley,Victoria,VIC,3749,Yackendandah,,132.68,132.68,132.68,132.68,,-36.313056,146.839167
93096651-262e-496e-be43-abc3e57a2ae7,Australia,AUS-Ballarat,Victoria,VIC,3350,Ballarat,,100.44,100.44,100.44,100.44,,-37.5691087,143.8563224
b442688c-a0ee-47e7-884e-9da5cd141e33,Australia,AUS-Bendigo,Victoria,VIC,3463,Baringhup,,100.44,100.44,100.44,100.44,,-36.9605286,143.9813554
d52ef12a-fb88-4565-a133-525f840560df,Australia,AUS-Bendigo,Victoria,VIC,3552,Bendigo,,100.44,100.44,100.44,100.44,,-36.7570157,144.2793906
0f83f11a-06d7-414c-a08d-028619db1fd7,Australia,AUS-Bendigo,Victoria,VIC,3453,Big Hill,,100.44,100.44,100.44,100.44,,-36.8335675,144.2394389
83a3bff7-ce52-493b-a696-34b89755f69c,Australia,AUS-Bendigo,Victoria,VIC,3516,Bridgewater on Loddon,,100.44,100.44,100.44,100.44,,-36.6047192,143.9405609
f90f9692-5b17-47ca-b8a8-4417fb6ab477,Australia,AUS-Bendigo,Victoria,VIC,3658,Broadford,,133.65,133.65,133.65,133.65,,-37.2110528,145.063089
9fa45d37-6b7d-49d8-81f5-a7b971481ba3,Australia,AUS-Bendigo,Victoria,VIC,3464,Carisbrook,,100.44,100.44,100.44,100.44,,-37.0150311,143.8454596
66267963-18ff-41b6-938c-0e61149d7a86,Australia,AUS-Bendigo,Victoria,VIC,3460,Daylesford,,100.44,100.44,100.44,100.44,,-37.35,144.15
08d5fd48-a678-4f83-92f8-edfa3f8a6eeb,Australia,AUS-Bendigo,Victoria,VIC,3453,Harcourt,,100.44,100.44,100.44,100.44,,-37,144.25
a83eafae-e6fb-4718-aa4f-3d8254553c58,Australia,AUS-Bendigo,Victoria,VIC,3453,Harcourt North,,100.44,100.44,100.44,100.44,,-36.9404173,144.2850068
8ac36804-cfc1-43e7-b59c-5900bd2bfac0,Australia,AUS-Bendigo,Victoria,VIC,3551,Maiden Gully,,100.44,100.44,100.44,100.44,,-36.743,144.209
f5480f00-f93b-4613-9546-3d0630f6efb0,Australia,AUS-Bendigo,Victoria,VIC,3463,Maldon,,100.44,100.44,100.44,100.44,,-36.9980464,144.0685988
815c42a7-433b-498d-adef-df3df597c84a,Australia,AUS-Bendigo,Victoria,VIC,3206,Middle Park,,51,51,51,51,,-37.851944,144.963056
128900f2-0232-4ca9-9206-79706ef34518,Australia,AUS-Bendigo,Victoria,VIC,3462,Newstead,,100.44,100.44,100.44,100.44,,-37.105278,144.065
0f3a81b4-5e86-4828-9b34-84ce997d918a,Australia,AUS-Bendigo,Victoria,VIC,3523,Redcastle,,194.2,209.13,209.13,209.13,,-36.7704954,144.7611153
318e3821-71b3-483f-9d08-4b6877d7b35b,Australia,AUS-Bendigo,Victoria,VIC,3364,Springmount,,100.44,91.56,91.56,91.56,,-37.4130869,143.9351234
0f64a562-78fe-4dc8-80ee-a0bf5e9bc5f0,Australia,AUS-Bendigo,Victoria,VIC,3448,Sutton Grange,,151.24,151.24,151.24,151.24,,-36.9622534,144.3457864
623aab6e-d33b-4deb-8625-7b835941202f,Australia,AUS-Mildura,Victoria,VIC,3602,Mildura,,188.33,188.33,188.33,188.33,,-34.2080167,142.1245535
1f35bc53-a077-4634-b048-fdbe205158db,Australia,AUS-Geelong,Victoria,VIC,3249,Alvie,,179.2,179.2,179.2,179.2,,-38.244444,143.515556
b2a5dba6-4e5a-431c-95af-58ead57e74cb,Australia,AUS-Geelong,Victoria,VIC,3241,Bambra,,179.2,179.2,179.2,179.2,,-38.3667365,143.9448801
fb7f86b4-38a5-48d1-be45-46719a56da2b,Australia,AUS-Geelong,Victoria,VIC,3214,Corio,,62.87,62.87,62.87,62.87,,-38.0741368,144.358638
8eb3fde6-b2da-4721-9c4e-140437d8659f,Australia,AUS-Geelong,Victoria,VIC,3222,Curlewis,,90.81,90.81,90.81,90.81,,-38.1767277,144.5327632
482e921d-a25f-4da9-b873-759833f07753,Australia,AUS-Geelong,Victoria,VIC,3235,Deans Marsh,,90.81,90.81,90.81,90.81,,-38.383333,143.883333
cc957242-66a6-4bba-a279-19cf39124e61,Australia,AUS-Geelong,Victoria,VIC,3222,Drysdale,,90.81,90.81,90.81,90.81,,-38.1809329,144.5985292
3497aaa6-fae6-47c1-94da-73b1106d4928,Australia,AUS-Geelong,Victoria,VIC,3213,Geelong,,62.87,62.87,62.87,62.87,,-37.9873525,144.2811537
f7239771-3ca4-44f3-be8d-f6089e7d2b7f,Australia,AUS-Geelong,Victoria,VIC,3216,Highton,,66.56,133.11,66.56,133.11,,-38.171,144.318
f21e0986-bec6-44a1-a0ff-e0b79a328506,Australia,AUS-Geelong,Victoria,VIC,3224,Leopold,,83.3,166.59,83.3,166.59,,-38.1944438,144.4670924
2dd4ef75-f82e-4161-96ac-8a18497b505b,Australia,AUS-Geelong,Victoria,VIC,3332,Lethbridge,,132.73,132.73,132.73,132.73,,-37.9633341,144.1065864
f065312d-7e48-446e-b819-43a79a360d65,Australia,AUS-Geelong,Victoria,VIC,3240,Modewarre,,118.76,118.76,118.76,118.76,,-38.266111,144.121944
26ece13f-0be1-438a-b96f-a3dce246d65e,Australia,AUS-Geelong,Victoria,VIC,3240,Mt Moriac,,99.97,199.94,99.97,199.94,,-38.2201027,144.191706
65b9bac1-195e-48ee-b6f7-884ff9bcf0ba,Australia,AUS-Geelong,Victoria,VIC,3243,Murroon,,123.16,123.16,123.16,123.16,,-38.4205099,143.8040591
c699e9c4-0f93-422b-87ce-945b131d382a,Australia,AUS-Geelong,Victoria,VIC,3240,Paraparap,,118.76,118.76,118.76,118.76,,-38.298889,144.183889
cd96fd63-fb60-42ef-a98a-4c48ecea10ff,Australia,AUS-Geelong,Victoria,VIC,3223,Portarlington,,90.81,90.81,90.81,90.81,,-38.116667,144.65
e1253319-7529-4a31-8e0e-bf88d000242c,Australia,AUS-Geelong,Victoria,VIC,3221,Stonehaven,,62.87,62.87,62.87,62.87,,-38.1288448,144.2504403
4f652730-33aa-4e31-905e-348a541e5884,Australia,AUS-Geelong,Victoria,VIC,3328,Teesdale,,146.7,146.7,146.7,146.7,,-38.022066,144.0630048
7ca8c5f7-23ee-47aa-aaef-c7a8ad58ab77,Australia,AUS-Geelong,Victoria,VIC,3268,Timboon,,99.97,199.94,99.97,199.94,,-38.478525,142.9734629
e5132e7e-8490-43f4-888c-62cdb4cf1af4,Australia,AUS-Geelong,Victoria,VIC,3228,Torquay,,83.3,166.59,83.3,166.59,,-38.333333,144.316667
889cbd5f-7929-4bd1-93f5-106acc979fb9,Australia,AUS-Geelong,Victoria,VIC,3221,Wallington,,83.3,166.59,83.3,166.59,,-38.1636337,144.1501922
76b98ab9-ce3c-4c9f-9e1b-02acc1487aa1,Australia,AUS-Geelong,Victoria,VIC,3216,Waurn Ponds,,66.56,133.11,66.56,133.11,,-38.208813,144.2709146
c2318ec8-3693-4eb5-9e8c-b5e7e2b129a8,Australia,AUS-Gippsland,Victoria,VIC,3875,Bairnsdale,,101.25,101.25,101.25,101.25,,-37.833333,147.616667
88ab4050-9b7b-40d3-a386-d1b427240468,Australia,AUS-Gippsland,Victoria,VIC,3953,Berry's Creek,,101.25,101.25,101.25,101.25,,-38.41889,146.080755
37c02ef3-d446-49e2-afdb-fe642e615f4e,Australia,AUS-Gippsland,Victoria,VIC,3960,Foster,,101.25,101.25,101.25,101.25,,-38.65,146.2
7c4fc698-9251-4acc-98be-5171f336aa40,Australia,AUS-Gippsland,Victoria,VIC,3953,Leongatha,,101.25,101.25,101.25,101.25,,-38.4740327,145.9436663
4eeb03ca-a6d3-47e5-ac94-dbc09d9a9b05,Australia,AUS-Gippsland,Victoria,VIC,3859,Maffa West Upper,,101.25,101.25,101.25,101.25,,-37.8729822,146.817681
a0ed6f09-3d97-491c-bdca-84b1807ad3ed,Australia,AUS-Gippsland,Victoria,VIC,3804,Narre Warren East,,51,51,51,51,,-37.961,145.367
6f5d055b-a9d3-4044-ac43-57c2c1aacdee,Australia,AUS-Gippsland,Victoria,VIC,3831,Neerim South,,101.25,101.25,101.25,101.25,,-38.016667,145.966667
4d16e577-2ae2-46d1-b673-e0ee20b730c2,Australia,AUS-Gippsland,Victoria,VIC,3810,Pakenham Upper,,101.25,101.25,101.25,101.25,,-38.0034676,145.5025595
35fa720b-1162-45ae-9253-2a2d288328ce,Australia,AUS-Gippsland,Victoria,VIC,3885,Tambo Upper,,155.25,155.25,155.25,155.25,,-37.7718005,147.8116993
0cdeba02-c49c-45e9-a8ad-f983b04522e3,Australia,AUS-Gippsland,Victoria,VIC,3984,The Gurdies,,101.25,101.25,101.25,101.25,,-38.3863916,145.5659261
1f34d8a9-73c7-470a-b257-79fa5c10dbf2,Australia,AUS-Gippsland,Victoria,VIC,3859,Tinamba West,,101.25,101.25,101.25,101.25,,-37.9329967,146.8497352
690a7618-1224-4b31-aa31-459356c9827d,Australia,AUS-Gippsland,Victoria,VIC,3844,Traralgon,,101.25,101.25,101.25,101.25,,-38.2033531,146.519786
10d3df0d-c2aa-4d73-95a5-c26afb9d8fc3,Australia,AUS-Gippsland,Victoria,VIC,3820,Warragul,,101.25,101.25,101.25,101.25,,-38.1537515,145.9297824
fae767de-dd0d-4602-a0e4-7925762237bf,Australia,AUS-Gippsland,Victoria,VIC,3995,Wonthaggi,,101.25,101.25,101.25,101.25,,-38.6089501,145.5911028
5b474855-5032-4b41-99ed-17005b866cfa,Australia,AUS-Goulburn Valley,Victoria,VIC,3664,Avenel,,132.68,132.68,132.68,132.68,,-36.9,145.233333
27971fe6-9c7a-46fd-926e-563d8d0ba295,Australia,AUS-Goulburn Valley,Victoria,VIC,3660,Caveat,,164.32,179.25,179.25,179.25,,-37.0557415,145.4824736
a09c02f0-2440-41fe-bb4e-6634de8b1e50,Australia,AUS-Goulburn Valley,Victoria,VIC,3111,Donvale,,51,51,51,51,,-37.7901921,145.1872619
59ba741b-c8f5-4aa2-a555-1d2c4508435f,Australia,AUS-Goulburn Valley,Victoria,VIC,3665,Locksley,,164.32,179.25,179.25,179.25,,-36.8520512,145.3399273
3acd9d11-2079-4836-b7ba-937d0d9be163,Australia,AUS-Goulburn Valley,Victoria,VIC,3665,Longwood,,239,253.95,253.95,253.95,,-36.8488197,145.4080574
2376a7ce-b71f-4c5f-8f94-7b75219721ee,Australia,AUS-Goulburn Valley,Victoria,VIC,3724,Mansfield,,207.9,207.9,207.9,207.9,,-37.0625288,146.0821493
ce6aea33-150b-4bcb-9476-547d2549fa2e,Australia,AUS-Goulburn Valley,Victoria,VIC,3000,Melbourne,,51,51,51,51,,-37.8152065,144.963937
a4ba0fe9-3f81-48ff-89c0-2b91814026be,Australia,AUS-Goulburn Valley,Victoria,VIC,3610,Murchison,,133.65,133.65,133.65,133.65,,-36.616667,145.216667
c5013361-1b12-4c28-9d49-ec65385b143e,Australia,AUS-Goulburn Valley,Victoria,VIC,3610,Murchison East,,133.65,133.65,133.65,133.65,,-36.6203401,145.2590707
3a112a21-9ce0-47ed-97b8-64460ade4065,Australia,AUS-Goulburn Valley,Victoria,VIC,3608,Nagambie,,133.65,133.65,133.65,133.65,,-36.7802263,145.1528312
6e93ba58-28c1-4e5b-b639-6163129c8d2b,Australia,AUS-Goulburn Valley,Victoria,VIC,3090,Plenty,,51,51,51,51,,-37.670486,145.1099967
7d201b05-0bac-4ee0-9e21-1caf67b40b8b,Australia,AUS-Goulburn Valley,Victoria,VIC,3612,Rushworth,,133.65,133.65,133.65,133.65,,-36.6265235,145.0672551
843e2e13-68c1-4bde-ad60-fdad84c639d0,Australia,AUS-Goulburn Valley,Victoria,VIC,3660,Seymour,,111.38,111.38,111.38,111.38,,-37.0160797,145.1619887
5ac21f28-1940-4056-b37c-26feb9ca7a4e,Australia,AUS-Goulburn Valley,Victoria,VIC,3205,South Melbourne,,51,51,51,51,,-37.8338889,144.963937
542bc42f-0046-4492-9a18-38d579e83d26,Australia,AUS-Goulburn Valley,Victoria,VIC,3142,Toorak,,51,51,51,51,,-37.8432402,145.0190242
10b34d40-9d9f-4a77-8824-2a0efaba6518,Australia,AUS-Grampians,Victoria,VIC,3377,Armstrong,,83.3,166.59,83.3,166.59,,-37.2112639,142.8734706
05926610-43b3-4873-b80e-310a0cd49b37,Australia,AUS-Grampians,Victoria,VIC,3377,Moyston,,239,253.95,253.95,253.95,,-37.3171971,142.7587443
6df3c4d4-a1cc-46af-ba89-b5defbdc2bb3,Australia,AUS-Grampians,Victoria,VIC,3377,Warrak,,194.2,209.13,209.13,209.13,,-37.2664718,143.147726
4e1a3058-11e0-4d7b-b39e-8869a656a97d,Australia,AUS-Heathcote,Victoria,VIC,3444,Barfold,,121.5,243,121.5,121.5,2000L tanks are local depot collect only,-37.091944,144.506111
63a83dcc-7eb3-4b97-9ec1-b492813bf257,Australia,AUS-Heathcote,Victoria,VIC,3469,Elmhurst,,194.2,209.13,209.13,209.13,,-37.183333,143.25
3a036d1a-52d0-42b1-b2bf-f5c5ae0cba16,Australia,AUS-Heathcote,Victoria,VIC,3184,Elwood,,51,51,51,51,,-37.878722,144.9859676
1c6a94cc-5f9a-4361-8bba-348059633bf0,Australia,AUS-Heathcote,Victoria,VIC,3444,Glenhope,,121.5,243,121.5,121.5,2000L tanks are local depot collect only,-37.0778252,144.6080076
5aa085a8-e3cd-4072-9afe-6978ec0c418b,Australia,AUS-Heathcote,Victoria,VIC,3523,Heathcote,,100.44,100.44,100.44,100.44,,-36.916667,144.7
17138595-9471-4c46-a110-ab716f4d1b88,Australia,AUS-Heathcote,Victoria,VIC,3444,Redesdale,,121.5,243,121.5,121.5,2000L tanks are local depot collect only,-37.0012974,144.4937398
c852bfb1-3734-4f45-a70b-ef68d76427e6,Australia,AUS-Heathcote,Victoria,VIC,3551,Toolleen,,151.24,151.24,151.24,151.24,,-36.7408124,144.6960512
af1bf16c-dc80-4aff-a780-b0ebe7daa244,Australia,AUS-Heathcote,Victoria,VIC,3551,Toolleen,,151.24,151.24,151.24,151.24,,-36.7408124,144.6960512
b454d663-31bc-4043-a862-6dfeea6209ce,Australia,AUS-Heathcote,Victoria,VIC,3462,Welshmans Reef,,151.24,151.24,151.24,151.24,,-37.0663518,144.0405424
65d80005-1e50-49fa-bca4-61d40d3b6c37,Australia,AUS-Henty,Victoria,VIC,3300,Hamilton,,99.97,199.94,99.97,199.94,,-37.7455702,142.0178976
a9b86a57-79e6-4fb4-9ce8-7d54dbff483d,Australia,AUS-Henty,Victoria,VIC,3286,Macarthur,,121.37,242.73,121.37,242.73,,-38.027044,142.0046427
7b3e6cd4-24a4-4b6c-9381-46d1d4c28a1a,Australia,AUS-King Valley,Victoria,VIC,3747,Beechworth,,132.68,132.68,132.68,132.68,,-36.3533015,146.6877247
f49ac1fa-af55-4fda-ae74-d407c995532f,Australia,AUS-King Valley,Victoria,VIC,3678,Cheshunt,,216.61,215.53,215.53,231.54,,-36.7981846,146.427897
64c256b1-c8c6-414d-8f02-2099ebf6f49c,Australia,AUS-King Valley,Victoria,VIC,3678,Cheshunt,,216.61,231.54,231.54,231.54,,-36.7981846,146.427897
a5f70b6f-c7ce-4519-bf80-283c6f4ed454,Australia,AUS-King Valley,Victoria,VIC,3732,King Valley,,132.68,132.68,132.68,132.68,,-36.694722,146.401667
bc735c16-2673-4722-b20e-22c31dae3f31,Australia,AUS-King Valley,Victoria,VIC,3678,Milawa,,132.68,132.68,132.68,132.68,,-36.433333,146.433333
1debca26-31bb-420b-b47d-4d1d4ef13f84,Australia,AUS-King Valley,Victoria,VIC,3691,Mongans Bridge,,216.61,231.54,231.54,231.54,,-36.5896586,147.1003269
9de634b8-7672-458a-b454-5b49704b51da,Australia,AUS-King Valley,Victoria,VIC,3678,Oxley,,132.68,132.68,132.68,132.68,,-36.4349409,146.3554145
63cc788e-2af7-4268-9d83-224cbd9118c2,Australia,AUS-King Valley,Victoria,VIC,3676,Wangaratta,,132.68,132.68,132.68,132.68,,-36.3682777,146.3172149
e93e694a-1c6a-4b2b-8594-c7db7891ee5d,Australia,AUS-King Valley,Victoria,VIC,3733,Whitfield,,188.51,188.51,188.51,188.51,,-36.748307,146.4160017
9a28c1f2-8f4f-424a-b158-9b8e258d5645,Australia,AUS-Macedon Ranges,Victoria,VIC,3433,Baynton,,121.5,243,121.5,121.5,2000L tanks are local depot collect only,-37.399104,144.7796581
862ee55c-ccdc-4e3e-b3d5-29acac8b090b,Australia,AUS-Macedon Ranges,Victoria,VIC,3437,Gisborne,,121.5,243,121.5,121.5,2000L tanks are local depot collect only,-37.49,144.588889
797cbc1e-bd72-4067-b772-b3e1a04d6f6d,Australia,AUS-Macedon Ranges,Victoria,VIC,3451,Guilford,,148.5,297,148.5,148.5,2000L tanks are local depot collect only,-37.1496144,144.1754128
0b3cf230-02a2-43f2-9b78-66fa3c1e1ccf,Australia,AUS-Macedon Ranges,Victoria,VIC,3444,Kyneton,,121.5,243,121.5,121.5,2000L tanks are local depot collect only,-37.233333,144.45
4f7747db-d57f-43dd-86e4-0118cf30b2d1,Australia,AUS-Macedon Ranges,Victoria,VIC,3435,Lancefield,,121.5,243,121.5,121.5,2000L tanks are local depot collect only,-37.2769748,144.728396
9acd9105-c5c3-40b3-b648-c24399b62a10,Australia,AUS-Macedon Ranges,Victoria,VIC,3085,McLeod,,51,51,51,51,,-37.714,145.066
8959d85d-7320-46a2-980b-651f4067c27a,Australia,AUS-Macedon Ranges,Victoria,VIC,3441,Mount Macedon,,121.5,243,121.5,121.5,2000L tanks are local depot collect only,-37.3981393,144.5985292
5ab502c2-90eb-4997-b34d-da32ba1b6f3b,Australia,AUS-Macedon Ranges,Victoria,VIC,3444,Pipers Creek,,121.5,243,121.5,121.5,2000L tanks are local depot collect only,-37.245262,144.5491997
5e4754dc-38f0-4f99-a52e-966ad7d67049,Australia,AUS-Macedon Ranges,Victoria,VIC,3335,Rockbank,,104.79,104.79,104.79,104.79,,-37.7304579,144.652914
617bb52f-52e4-4065-a739-21930df4089d,Australia,AUS-Macedon Ranges,Victoria,VIC,3429,Sunbury,,90.81,90.81,90.81,90.81,,-37.581111,144.713889
f6d338f8-085e-4cb0-9715-d1db2834b9be,Australia,AUS-Melbourne,Victoria,VIC,3195,Braeside,,51,51,51,51,,-38,145.125
9489e7e7-b8aa-4e41-ad24-05a8a793908d,Australia,AUS-Melbourne,Victoria,VIC,3056,Brunswick,,51,51,51,51,,-37.7666099,144.9584302
edea196f-946b-4939-960a-b0b490ac77a5,Australia,AUS-Melbourne,Victoria,VIC,3054,Carlton North,,51,51,51,51,,-37.788805,144.9719823
32240560-707d-4b13-b1b9-4b419b9d6458,Australia,AUS-Melbourne,Victoria,VIC,3192,Cheltenham,,51,51,51,51,,-37.964155,145.0658766
f0df680c-dcb5-4474-a570-ee41566e5b4a,Australia,AUS-Melbourne,Victoria,VIC,3066,Collingwood,,51,51,51,51,,-37.8009595,144.9873447
cff473ad-b230-4676-ae06-78893f2a4587,Australia,AUS-Melbourne,Victoria,VIC,3089,Diamond Creek,,51,51,51,51,,-37.6666174,145.1541397
60d59b81-7d38-40bc-b429-7f4f815758f2,Australia,AUS-Melbourne,Victoria,VIC,3108,Doncaster,,51,51,51,51,,-37.7865824,145.1210303
7912f581-0ed4-467f-a8a6-61aad3354e70,Australia,AUS-Melbourne,Victoria,VIC,3041,Essendon North,,51,51,51,51,,-37.7383196,144.8992556
f4b4a6cc-ad3f-4b39-9375-5e3b1baaa3d8,Australia,AUS-Melbourne,Victoria,VIC,3149,Mount Waverley,,51,51,51,51,,-37.8772869,145.1265477
846bc9c5-31a7-4e43-a967-d56f15a0d178,Australia,AUS-Melbourne,Victoria,VIC,3070,Northcote,,51,51,51,51,,-37.7736132,144.9997396
bf4dba81-4faa-4ca9-a81a-4c64d6f0839e,Australia,AUS-Melbourne,Victoria,VIC,3010,Parkville,,51,51,51,51,,-37.7962849,144.9598069
a255e967-719c-4b68-bb8f-def065d996ab,Australia,AUS-Melbourne,Victoria,VIC,3072,Preston,,51,51,51,51,,-37.7399362,145.0107588
cee08c74-cb75-477f-8756-ed1315f5f15c,Australia,AUS-Melbourne,Victoria,VIC,3141,South Yarra,,51,51,51,51,,-37.838568,144.9914761
36735b00-7505-4da0-b4eb-ae2b36b20d9e,Australia,AUS-Melbourne,Victoria,VIC,3127,Surrey Hills,,51,51,51,51,,-37.8259381,145.0972417
3f4428c3-df46-43c7-8ef4-50514fa6ddf3,Australia,AUS-Melbourne,Victoria,VIC,3113,Warrandyte,,51,51,51,51,,-37.738,145.223
50ed1e3e-e8bb-45ec-a938-a07e62d0f8dd,Australia,AUS-Melbourne,Victoria,VIC,3013,Yarraville,,51,51,51,51,,-37.819811,144.8813738
8ffdffaf-473f-4253-a67a-cf65ffed889c,Australia,AUS-Mornington,Victoria,VIC,3936,Arthurs Seat,,149.38,164.32,164.32,164.32,,-38.352,144.953
2e3be1f4-5f1c-4a4f-a43a-71f333667e45,Australia,AUS-Mornington,Victoria,VIC,3926,Balnarring,,164.32,179.25,179.25,179.25,,-38.371,145.118
af3470d7-ace2-4e36-af20-299ac4f1af6f,Australia,AUS-Mornington,Victoria,VIC,3936,Dromana,,149.38,164.32,164.32,164.32,,-38.338,144.965
6aef87c6-90fd-4be9-89d3-c2c1765649bb,Australia,AUS-Mornington,Victoria,VIC,3929,Flinders,,149.38,164.32,164.32,164.32,,-38.4574538,144.9721978
c45c6507-aa6b-421d-9ecd-d4195597c1a2,Australia,AUS-Mornington,Victoria,VIC,3199,Frankston Central,,51,51,51,51,,-38.1466246,145.135722
bc05221d-6ac0-4037-acb1-940fa2ae20b5,Australia,AUS-Mornington,Victoria,VIC,3921,French Island,,216.61,231.54,231.54,231.54,,-38.3489348,145.3364703
2a7fe399-65e6-4f1e-840c-fa98b20d4887,Australia,AUS-Mornington,Victoria,VIC,3928,Main Ridge,,149.38,164.32,164.32,164.32,,-38.4018779,144.9721978
b2065653-ed62-4a44-8349-4a0161e0f8db,Australia,AUS-Mornington,Victoria,VIC,3933,Moorooduc,,149.38,164.32,164.32,164.32,,-38.2501593,145.1265477
37f0a45d-b2a7-433a-9b63-5305e19ea239,Australia,AUS-Mornington,Victoria,VIC,3195,Mordialloc,,51,51,51,51,,-37.9995418,145.0940302
15848e86-5cda-4659-8489-a55db8e09dbd,Australia,AUS-Mornington,Victoria,VIC,3931,Mornington,,149.38,164.32,164.32,164.32,,-38.2277083,145.0603633
25b5326c-1e77-4a4a-92f1-edfdb879de60,Australia,AUS-Mornington,Victoria,VIC,3930,Mt Eliza,,149.38,164.32,164.32,164.32,,-38.1952209,145.0879338
01723eae-4023-4700-a99e-fbbb1ed972f9,Australia,AUS-Mornington,Victoria,VIC,3937,Red Hill,,149.38,164.32,164.32,164.32,,-38.355,145.016
ec894209-8228-4e4e-bb50-4833b7f2bdef,Australia,AUS-Mornington,Victoria,VIC,3937,Red Hill South,,149.38,164.32,164.32,164.32,,-38.384,145.024
9f47c16c-adcb-455b-87d9-5fc5dcef1f3b,Australia,AUS-Mornington,Victoria,VIC,3916,Shoreham,,164.32,179.25,179.25,179.25,,-38.427,145.05
a3bba3c6-7c07-4652-8b1a-70a2e1f0a80b,Australia,AUS-Mornington,Victoria,VIC,3941,St Andrews Beach,,149.38,164.32,164.32,164.32,,-38.419,144.83
3d1a5011-9cfb-4a11-9a37-1adbe7c97b1a,Australia,AUS-Mornington,Victoria,VIC,3918,Tuerong,,149.38,164.32,164.32,164.32,,-38.3329437,145.165179
291dec54-7aa0-4d7a-8edf-fab39a75acb5,Australia,AUS-Mornington,Victoria,VIC,3913,Tyabb,,149.38,164.32,164.32,164.32,,-38.2651079,145.1706992
6132784d-7dea-4619-96c3-736ddc569658,Australia,AUS-Nth East,Victoria,VIC,3128,Box Hill South,,51,51,51,51,,-37.836,145.124
4178d10e-36a2-4400-8d98-7ba0cdb4b6ae,Australia,AUS-Nth East,Victoria,VIC,3646,Dookie,,133.65,133.65,133.65,133.65,,-36.3117549,145.7104485
631d3a0d-2a95-48a4-9b7e-83821d382379,Australia,AUS-Nth East,Victoria,VIC,3691,Gundowring,,224.03,224.03,224.03,224.03,,-36.3479927,147.0752513
100cbe65-2fba-49f3-9904-593597a7f2c7,Australia,AUS-Nth East,Victoria,VIC,3678,Markwood,,132.68,132.68,132.68,132.68,,-36.4695354,146.5056032
03047466-17c4-43c0-a49b-14d4b259fa12,Australia,AUS-Nth East,Victoria,VIC,3135,Ringwood East,,51,51,51,51,,-37.818,145.252
9aebcb85-a142-4194-b0e8-7d6992f6ba09,Australia,AUS-Nth East,Victoria,VIC,3675,Taminick via Glenrowan,,133.65,133.65,133.65,133.65,,-36.3900098,146.2169711
8347ad9e-ebef-432e-a290-1fef93496695,Australia,AUS-Pyrenees,Victoria,VIC,3371,Amherst,,151.24,151.24,151.24,151.24,,-37.1560117,143.6655871
3be33d7b-7030-465c-9b93-c7cf6a319283,Australia,AUS-Pyrenees,Victoria,VIC,3377,Ararat,,99.97,199.94,99.97,199.94,,-37.2846464,142.9316441
f29df6e7-6caa-4367-9c21-64d30a8db9b3,Australia,AUS-Pyrenees,Victoria,VIC,3467,Avoca,,100.44,100.44,100.44,100.44,,-37.0638618,143.4554195
a905a4b1-2619-4798-b493-090b00edc79e,Australia,AUS-Pyrenees,Victoria,VIC,3373,Beaufort,,99.97,199.94,99.97,199.94,,-37.4228524,143.3703651
d8630cb0-cbab-4f26-b94f-73654f1e5cde,Australia,AUS-Pyrenees,Victoria,VIC,3357,Buninyong,,99.97,199.94,99.97,199.94,,-37.6521937,143.8943543
a94f7772-7eac-4fca-a02f-f392939a3343,Australia,AUS-Pyrenees,Victoria,VIC,3364,Coghills Creek,,148.5,297,148.5,148.5,2000L tanks are local depot collect only,-37.381445,143.7546247
3345b20d-72b5-41a6-9bec-2f451a5c7d90,Australia,AUS-Pyrenees,Victoria,VIC,3377,Crowlands,,194.2,209.13,209.13,209.13,,-37.1498396,143.1093525
6100ab9b-9135-4a01-8fa7-6e34b4c23a4c,Australia,AUS-Pyrenees,Victoria,VIC,3469,Glenlofty,,194.2,209.13,209.13,209.13,,-37.1245667,143.1968444
644cc634-8a7b-42ea-b581-70b5f93054f2,Australia,AUS-Pyrenees,Victoria,VIC,3377,Great Western,,99.97,199.94,99.97,199.94,,-37.15,142.85
e182b783-c43f-40f6-987b-13c62dd38f65,Australia,AUS-Pyrenees,Victoria,VIC,3190,Highett,,51,51,51,51,,-37.9487497,145.0410692
6c9903d2-3557-4ef8-8c91-87fb5b86a431,Australia,AUS-Pyrenees,Victoria,VIC,3400,Horsham,,99.97,199.94,99.97,199.94,,-36.7204107,142.1806128
f794caca-c5a0-462e-bba5-f35217074363,Australia,AUS-Pyrenees,Victoria,VIC,3352,Lamplough,,148.5,297,148.5,148.5,2000L tanks are local depot collect only,-37.133333,143.5
e5852e20-23d6-498c-8295-bd9f31eccf32,Australia,AUS-Pyrenees,Victoria,VIC,3377,Maroona,,121.37,242.73,121.37,242.73,,-37.4576097,142.8557149
53101db3-4cfc-4055-8410-8c6a65c47823,Australia,AUS-Pyrenees,Victoria,VIC,3478,Moonambel,,148.5,297,148.5,148.5,2000L tanks are local depot collect only,-36.9879818,143.319609
fc73c6c4-8c4b-499c-a4dc-e9504dc7f728,Australia,AUS-Pyrenees,Victoria,VIC,3350,Mount Clear,,100.44,100.44,100.44,100.44,,-37.602,143.868
d17e2b5c-f13b-4569-9480-915dfff6283a,Australia,AUS-Pyrenees,Victoria,VIC,3461,Musk,,148.5,297,148.5,148.5,2000L tanks are local depot collect only,-37.372,144.193
3235acb6-b504-4a44-8ded-5c0d87a22358,Australia,AUS-Pyrenees,Victoria,VIC,3351,Smythes Creek,,151.24,151.24,151.24,151.24,,-37.5941229,143.7694626
c26c1090-f1ec-4ee9-9b71-07a4c1cb68c8,Australia,AUS-Pyrenees,Victoria,VIC,3401,Wartook,,194.2,209.13,209.13,209.13,,-37.0546115,142.3436634
2356d993-7d77-4d00-82ea-9a90605a85c2,Australia,AUS-Pyrenees,Victoria,VIC,3355,Wendouree,,100.44,100.44,100.44,100.44,,-37.532,143.823
4b96b430-6cd0-4978-a953-c0dc29d4eda3,Australia,AUS-Pyrenees,Victoria,VIC,3379,Willaura,,216.61,231.54,231.54,231.54,,-37.5422738,142.7368981
0a1b149e-dac6-43de-a6bb-8db979e6499b,Australia,AUS-Riverland,Victoria,VIC,3590,Beverford,,188.33,188.33,188.33,188.33,,-35.2285875,143.4662269
d857c6a4-405c-474a-a0ab-f13f002ba334,Australia,AUS-Riverland,Victoria,VIC,3496,Karadoc,,188.33,188.33,188.33,188.33,,-34.3413319,142.2836427
bf67d4ad-7c26-4512-8275-a842ce538548,Australia,AUS-Riverland,Victoria,VIC,3597,Piangil,,188.33,188.33,188.33,188.33,,-35.0739274,143.3300801
dfd04c5c-5ec4-40f1-91e9-debc91dd06c3,Australia,AUS-Rutherglen,Victoria,VIC,3685,Rutherglen,,132.68,132.68,132.68,132.68,,-36.055556,146.4625
8c43874b-e609-4ac4-aac4-77aa71f7507a,Australia,AUS-Rutherglen,Victoria,VIC,3687,Wahgunyah,,132.68,132.68,132.68,132.68,,-35.9852648,146.4383942
7801c3b4-3b66-4090-8f98-e407296c2915,Australia,AUS-Tasmania,Victoria,VIC,3183,St Kilda East,,51,51,51,51,,-37.8626196,145.0007064
45d1a657-93c7-4d0e-b15f-2fa474c5fa32,Australia,AUS-Yarra Valley,Victoria,VIC,3067,Abbotsford,,51,51,51,51,,-37.8023601,144.9983623
257ef4f9-0947-44bd-9a42-9b6dbb2d1ec7,Australia,AUS-Yarra Valley,Victoria,VIC,3099,Arthurs Creek,,126.97,141.91,141.91,141.91,,-37.583333,145.2
2db6fd00-b170-40be-9fa0-ce8b1724866d,Australia,AUS-Yarra Valley,Victoria,VIC,3186,Brighton,,51,51,51,51,,-37.9044002,144.9997396
d7072562-c847-4b0b-93d9-66a7df7e552e,Australia,AUS-Yarra Valley,Victoria,VIC,3770,Coldsteam,,194.2,209.13,209.13,209.13,,-37.734,145.383
72ce12b5-0e59-45fc-861a-e1835ac3c580,Australia,AUS-Yarra Valley,Victoria,VIC,3770,Coldstream,,194.2,209.13,209.13,209.13,,-37.734,145.383
b6cb4e62-6400-472e-991d-648a591a7373,Australia,AUS-Yarra Valley,Victoria,VIC,3136,Croydon Hills,,51,51,51,51,,-37.775,145.266
2ab3b366-5e13-4617-b177-3190ad4d1df9,Australia,AUS-Yarra Valley,Victoria,VIC,3340,Darley,,121.5,243,121.5,121.5,2000L tanks are local depot collect only,-37.654722,144.437222
9722b75f-8d01-4800-acc1-7b01aa4e5613,Australia,AUS-Yarra Valley,Victoria,VIC,3775,Dixons Creek,,164.32,179.25,179.25,179.25,,-37.6,145.416667
2154c471-b54f-49ff-8277-02a13938f652,Australia,AUS-Yarra Valley,Victoria,VIC,8012,Docklands,,51,51,51,51,,-37.8190118,144.9465764
e9983c53-cfe0-4544-930c-38bed8f06fa6,Australia,AUS-Yarra Valley,Victoria,VIC,3799,East Warburton,,194.2,209.13,209.13,209.13,,-37.7370439,145.7421233
79e2ecc5-1014-4e82-9299-3b53c0f1c602,Australia,AUS-Yarra Valley,Victoria,VIC,3095,Eltham,,51,51,51,51,,-37.715,145.158
23832b4b-4716-4988-b67f-d426f1c7a2ad,Australia,AUS-Yarra Valley,Victoria,VIC,3782,Emerald,,149.38,164.32,164.32,164.32,,-37.933056,145.436944
66dafd57-0084-4dc2-944e-09b7cd311117,Australia,AUS-Yarra Valley,Victoria,VIC,3777,Healesville,,164.32,179.25,179.25,179.25,,-37.656111,145.513889
bfc3df25-3a26-4fa9-8ce1-7a85ddf8afc1,Australia,AUS-Yarra Valley,Victoria,VIC,3097,Kangaroo Ground,,119.5,134.45,134.45,134.45,,-37.686,145.216
6edf4a50-7dc1-45c8-bc37-7c80c2506ca8,Australia,AUS-Yarra Valley,Victoria,VIC,3031,Kensington,,51,51,51,51,,-37.7941207,144.9276659
d9865b20-04b2-4269-b58f-72225f9f07cc,Australia,AUS-Yarra Valley,Victoria,VIC,3101,Kew,,51,51,51,51,,-37.803516,145.0328017
c4e09dfa-d89b-4470-a7e6-a92504f9f653,Australia,AUS-Yarra Valley,Victoria,VIC,3140,Lilydale,,100.49,100.49,100.49,100.49,,-37.7643547,145.3475331
2f07a309-c77a-44e7-ae6a-17f08eaaa7e1,Australia,AUS-Yarra Valley,Victoria,VIC,3093,Lower Plenty,,51,51,51,51,,-37.7393287,145.112755
27dd9785-d99d-4dc9-aec9-09183a8941a4,Australia,AUS-Yarra Valley,Victoria,VIC,3113,Nth Warrandyte,,119.5,134.45,134.45,134.45,,-37.726,145.216
07e4a1e1-d168-4239-a218-328ae51bf9f1,Australia,AUS-Yarra Valley,Victoria,VIC,3178,Rowville,,51,51,51,51,,-37.9210442,145.2424941
09271981-5884-4efd-904b-c37385cfc59f,Australia,AUS-Yarra Valley,Victoria,VIC,3139,Seville,,149.38,164.32,164.32,164.32,,-37.777,145.461
adbafa3e-ba81-4f5a-9202-080553ec9a32,Australia,AUS-Yarra Valley,Victoria,VIC,3795,Silvan,,164.32,179.25,179.25,179.25,,-37.8342877,145.4305486
f2ea0c7b-3248-4d2b-b3c5-14773f362990,Australia,AUS-Yarra Valley,Victoria,VIC,3760,Smiths Gully,,164.32,179.25,179.25,179.25,,-37.6267001,145.2867055
72c1171a-e178-4126-b1ef-9f2060aa2b4c,Australia,AUS-Yarra Valley,Victoria,VIC,3775,Steels Creek,,164.32,179.25,179.25,179.25,,-37.594,145.374
aa73fa92-6eb4-4c26-abfd-ab7c4ea92efb,Australia,AUS-Yarra Valley,Victoria,VIC,3775,Tarrawarra,,164.32,179.25,179.25,179.25,,-37.6469756,145.4363814
6f73cffe-cc37-4c07-a18d-55ebaf50cb0a,Australia,AUS-Yarra Valley,Victoria,VIC,3139,Wandin East,,164.32,179.25,179.25,179.25,,-37.811,145.453
bb36379f-fa93-456a-b583-8cd821e68162,Australia,AUS-Yarra Valley,Victoria,VIC,3115,Wonga Park,,119.5,134.45,134.45,134.45,,-37.7347069,145.2590707
97e0e783-aef9-4588-b9e0-0aa24b9e667c,Australia,AUS-Yarra Valley,Victoria,VIC,3775,Yarra Glen,,194.2,209.13,209.13,209.13,,-37.648889,145.371944
f3b32d37-103c-43bf-9fbf-7318476436eb,Australia,AUS-Yarra Valley,Victoria,VIC,3000,Yering,,194.2,209.13,209.13,209.13,,-37.7002209,145.3582514
d4d47723-cc8d-4198-a218-0136ca1325e1,Australia,AUS-Great South,Western Australia,WA,6831,Perth,,261.46,414.4,288.84,365.57,,-31.9505269,115.8604572
c77a870e-bc2d-4d19-92f4-498d9e1bee59,Australia,AUS-Margaret River,Western Australia,WA,6282,Yallingup,,432.09,609.07,483.51,560.24,,-33.6726029,115.0308297
26d19414-de1c-40cc-929b-9b23d471dbcc,Australia,AUS-Great South,Western Australia,WA,6330,Albany,,432.09,609.07,483.51,560.24,,-35.0269344,117.8837206
d30d1991-b309-4ce1-8296-1b5ebbdbbfba,Australia,AUS-Great South,Western Australia,WA,6237,Boyanup,,450.66,803.74,483.51,560.24,2000L tanks are local depot collect only,-33.4819735,115.7275486
82c02b18-244a-48e3-a667-1966dfa6d436,Australia,AUS-Great South,Western Australia,WA,6244,Boyup Brook,,941.81,1114.4,988.84,1065.57,Boyup Book is forklift delivery only,-33.8294715,116.3841139
8e6c0452-5c52-4d5b-8399-e6be36fc73ad,Australia,AUS-Great South,Western Australia,WA,6284,Cowaramup,,450.66,609.07,483.51,560.24,,-33.8522062,115.1014191
7492ef6a-fbd1-4e10-be43-0480d43da4db,Australia,AUS-Great South,Western Australia,WA,6324,Denmark,,450.66,609.07,483.51,560.24,,-34.9617565,117.35065
3ddd53c9-fd95-4eee-aa6a-81e3988cd98c,Australia,AUS-Great South,Western Australia,WA,6236,Ferguson,,737.7,904.4,778.84,855.57,Feruson is collect from Bunbury depot or Dardanup General Store,-33.4380651,115.8451176
aac2ed34-5a40-4b65-a87f-dfcf2017e64e,Australia,AUS-Great South,Western Australia,WA,6324,Forest Hill,,450.66,803.74,483.51,560.24,2000L tanks are local depot collect only,-34.6154064,117.4422799
8602bddc-9d30-4e01-8c12-b3fbe4e04acb,Australia,AUS-Great South,Western Australia,WA,6396,Frankland,,436.65,594.65,469.09,545.82,,-34.3028954,116.9381434
2d3b31a7-b4e7-4688-b725-76c480f19d1b,Australia,AUS-Great South,Western Australia,WA,6396,Frankland River,,436.65,594.65,469.09,545.82,,-34.3028954,116.9381434
acea9bbc-8130-43a3-9347-375a65b86fd4,Australia,AUS-Great South,Western Australia,WA,6220,Harvey,,401.61,558.6,433.04,509.77,,-33.0823087,115.9056816
6a8f2da9-1f42-4921-b05a-5f99964d978b,Australia,AUS-Great South,Western Australia,WA,6323,Kendenup,,450.66,609.07,483.51,560.24,,-34.458602,117.5730639
58004477-536d-43d7-ac12-fbdef07961f2,Australia,AUS-Great South,Western Australia,WA,6395,Kojonup,,450.66,609.07,483.51,560.24,,-33.828384,117.1589932
bc3af265-5179-4238-8dca-fdc1e1855ac7,Australia,AUS-Great South,Western Australia,WA,6330,Marbelup via Albany,,450.66,803.74,483.51,560.24,Marbelup is collect from Albany depot only,-34.9852323,117.7243895
68aeeb24-17ce-46a7-b896-93764cc57906,Australia,AUS-Great South,Western Australia,WA,6324,Mount Barker,,450.66,609.07,483.51,560.24,,-34.6307547,117.6653555
74ff3931-cf74-47b2-905b-bbe4c718ec40,Australia,AUS-Great South,Western Australia,WA,6050,Mt Lawley,,261.46,414.4,288.84,365.57,,-31.9320594,115.8741149
979119b8-34e8-49ea-9200-8b1c22e429c0,Australia,AUS-Great South,Western Australia,WA,6260,Pemberton,,450.66,803.74,483.51,560.24,2000L tanks are local depot collect only,-34.4432694,116.0369383
6bf975f3-9a1a-4a22-aa23-060e356b3884,Australia,AUS-Great South,Western Australia,WA,6324,Porongurup,,450.66,609.07,483.51,560.24,,-34.6594667,117.8946581
7308709b-05d9-4ac0-a235-9363c2b31cb9,Australia,AUS-Great South,Western Australia,WA,6722,South Hedland,,807.19,975.89,850.34,927.07,,-20.3927247,118.6015553
ed0ad7ac-2d56-4d1a-abf6-5da5e5ca4568,Australia,AUS-Great South,Western Australia,WA,6308,Wandering,,737.7,904.4,778.84,855.57,Wandering is local depot collect only,-32.6773523,116.6733738
16205fb8-05e0-4a81-8422-d2bc1613c09e,Australia,AUS-Great South,Western Australia,WA,6872,West Perth,,261.46,414.4,288.84,365.57,,-31.9453285,115.8474335
d9369c83-2a7b-488d-b7c7-c51c16df0bd2,Australia,AUS-Margaret River,Western Australia,WA,6280,Busselton,,450.66,609.07,483.51,560.24,,-33.6531584,115.3454892
3d166459-30ad-43df-a098-01ef8ffdb63c,Australia,AUS-Margaret River,Western Australia,WA,6280,Carbunup,,450.66,803.74,483.51,560.24,2000L tanks are local depot collect only,-33.69967,115.184531
02e78cdc-d659-437c-9122-cf478e985c1a,Australia,AUS-Margaret River,Western Australia,WA,6010,Claremont,,261.46,414.4,288.84,365.57,,-31.9842456,115.7780005
ca9c6606-37c5-4860-abe6-164c0f6163c3,Australia,AUS-Margaret River,Western Australia,WA,6239,Donnybrook,,450.66,609.07,483.51,560.24,,-33.5788408,115.8280053
8ed38a36-005d-494f-b10f-e6048b25ad3b,Australia,AUS-Margaret River,Western Australia,WA,6281,Dunsborough,,471.69,630.7,505.14,581.87,,-33.6173965,115.1011093
44219111-f5f2-4c0b-b70c-51cf803e2c59,Australia,AUS-Margaret River,Western Australia,WA,6288,Karridale,,450.66,803.74,483.51,560.24,2000L tanks are local depot collect only,-34.2038728,115.1402499
ecb48bae-df88-4898-b9a7-26a63ccf8218,Australia,AUS-Margaret River,Western Australia,WA,6258,Manjimup,,450.66,609.07,483.51,560.24,,-34.2491597,116.1437472
7f5324b6-36a0-4f77-861a-145710d0010a,Australia,AUS-Margaret River,Western Australia,WA,6285,Margaret River,,450.66,609.07,483.51,560.24,,-33.9610465,115.0767388
b87a3be3-6f18-43cd-a5b1-acf1b4dbd662,Australia,AUS-Margaret River,Western Australia,WA,6280,Metricup,,436.65,594.65,469.09,545.82,,-33.8048708,115.1216425
44aff657-ede5-41ec-9a6a-75861c63c940,Australia,AUS-Margaret River,Western Australia,WA,6280,Wilyabrup,,450.66,609.07,483.51,560.24,,-33.7711896,115.0342345
ea5f3e3a-8a88-4887-96cd-4a03875cdaec,Australia,AUS-Margaret River,Western Australia,WA,6282,Yallingup Siding,,450.66,609.07,483.51,560.24,,-33.6986358,115.1057556
ced4a259-5993-4acb-bab9-d631d4a7f4ca,Australia,AUS-Melbourne,Western Australia,WA,6081,Parkerville,,261.46,414.4,288.84,365.57,,-31.8753082,116.1386395
a3b1a6b9-04e9-48dd-a9bd-2d9ac258af2c,Australia,AUS-Swan Valley,Western Australia,WA,6562,Bakers Hill,,443.66,789.32,476.3,553.03,2000L tanks are local depot collect only,-31.7494294,116.4569355
381951fd-94e1-4b00-b54a-a29778ac2c69,Australia,AUS-Swan Valley,Western Australia,WA,6255,Catterick,,450.66,803.74,483.51,560.24,2000L tanks are local depot collect only,-33.853563,116.1631314
42adc521-82e1-4295-8363-70804675cfcb,Australia,AUS-Swan Valley,Western Australia,WA,6023,Duncraig,,261.46,414.4,288.84,365.57,,-31.8306124,115.7752703
4eb1b2f4-8381-49af-a543-4d5c074041ce,Australia,AUS-Swan Valley,Western Australia,WA,6056,Middle Swan,,261.46,414.4,288.84,365.57,,-31.8723346,116.0173525
833ebb4f-422a-458d-baec-10af36ac1a08,Australia,AUS-Swan Valley,Western Australia,WA,6056,Millendon,,261.46,414.4,288.84,365.57,,-31.8073045,116.0285054
f80e4119-7b69-47ed-95ff-e15b2c6965ec,Australia,AUS-Swan Valley,Western Australia,WA,6275,Nannup,,450.66,609.07,483.51,560.24,,-33.9821434,115.7680471
